CCSDS_OMM_VERS,COMMENT,CREATION_DATE,ORIGINATOR,OBJECT_NAME,OBJECT_ID,CENTER_NAME,REF_FRAME,TIME_SYSTEM,MEAN_ELEMENT_THEORY,EPOCH,MEAN_MOTION,ECCENTRICITY,INCLINATION,RA_OF_ASC_NODE,ARG_OF_PERICENTER,MEAN_ANOMALY,EPHEMERIS_TYPE,CLASSIFICATION_TYPE,NORAD_CAT_ID,ELEMENT_SET_NO,REV_AT_EPOCH,BSTAR,MEAN_MOTION_DOT,MEAN_MOTION_DDOT,SEMIMAJOR_AXIS,PERIOD,APOAPSIS,PERIAPSIS,OBJECT_TYPE,RCS_SIZE,COUNTRY_CODE,LAUNCH_DATE,SITE,DECAY_DATE,FILE,GP_ID,TLE_LINE0,TLE_LINE1,TLE_LINE2
"2.0","GENERATED VIA SPACE-TRACK.ORG API","2020-12-21T03:33:58","18 SPCS","BRO-1","2019-054A","EARTH","TEME","UTC","SGP4","2020-12-20T19:28:20.526816","15.08671909","0.00107320","45.0205","22.1700","136.5385","33.3258","0","U","44495","999","7391","0.00005746400000","0.00000667","0.0000000000000","6918.394","95.448","547.684","532.834","PAYLOAD","SMALL","FR","2019-08-19","RLLC","","2906789","168156731","0 BRO-1","1 44495U 19054A   20355.81134869  .00000667  00000-0  57464-4 0  9999","2 44495  45.0205  22.1700 0010732 136.5385  33.3258 15.08671909 73910"
"2.0","GENERATED VIA SPACE-TRACK.ORG API","2020-12-21T07:06:10","18 SPCS","BRO-1","2019-054A","EARTH","TEME","UTC","SGP4","2020-12-21T03:07:02.985888","15.08672394","0.00107570","45.0204","20.4810","138.6618","323.0896","0","U","44495","999","7396","0.00005596800000","0.00000643","0.0000000000000","6918.392","95.448","547.699","532.815","PAYLOAD","SMALL","FR","2019-08-19","RLLC","","2906901","168160352","0 BRO-1","1 44495U 19054A   20356.12989567  .00000643  00000-0  55968-4 0  9998","2 44495  45.0204  20.4810 0010757 138.6618 323.0896 15.08672394 73962"
"2.0","GENERATED VIA SPACE-TRACK.ORG API","2020-12-21T14:46:10","18 SPCS","BRO-1","2019-054A","EARTH","TEME","UTC","SGP4","2020-12-21T12:46:45.325056","15.08672331","0.00107860","45.0205","18.3473","141.1035","349.3686","0","U","44495","999","7402","0.00004826900000","0.00000521","0.0000000000000","6918.392","95.448","547.720","532.795","PAYLOAD","SMALL","FR","2019-08-19","RLLC","","2907099","168165227","0 BRO-1","1 44495U 19054A   20356.53246904  .00000521  00000-0  48269-4 0  9995","2 44495  45.0205  18.3473 0010786 141.1035 349.3686 15.08672331 74025"
"2.0","GENERATED VIA SPACE-TRACK.ORG API","2020-12-21T21:54:52","18 SPCS","BRO-1","2019-054A","EARTH","TEME","UTC","SGP4","2020-12-21T12:46:45.325056","15.08672331","0.00107860","45.0205","18.3473","141.1035","349.3686","0","U","44495","999","7402","0.00004826900000","0.00000521","0.0000000000000","6918.392","95.448","547.720","532.795","PAYLOAD","SMALL","FR","2019-08-19","RLLC","","2907202","168187675","0 BRO-1","1 44495U 19054A   20356.53246904  .00000521  00000-0  48269-4 0  9995","2 44495  45.0205  18.3473 0010786 141.1035 349.3686 15.08672331 74025"
"2.0","GENERATED VIA SPACE-TRACK.ORG API","2020-12-22T04:08:37","18 SPCS","BRO-1","2019-054A","EARTH","TEME","UTC","SGP4","2020-12-21T22:02:52.048608","15.08672194","0.00107280","45.0206","16.2996","143.2282","286.8863","0","U","44495","999","7408","0.00003896700000","0.00000372","0.0000000000000","6918.393","95.448","547.680","532.836","PAYLOAD","SMALL","FR","2019-08-19","RLLC","","2907352","168212163","0 BRO-1","1 44495U 19054A   20356.91865797  .00000372  00000-0  38967-4 0  9992","2 44495  45.0206  16.2996 0010728 143.2282 286.8863 15.08672194 74081"
"2.0","GENERATED VIA SPACE-TRACK.ORG API","2020-12-22T06:46:10","18 SPCS","BRO-1","2019-054A","EARTH","TEME","UTC","SGP4","2020-12-22T02:41:23.402688","15.08672328","0.00107040","45.0205","15.2739","144.0563","257.6413","0","U","44495","999","7411","0.00003761900000","0.00000351","0.0000000000000","6918.392","95.448","547.663","532.852","PAYLOAD","SMALL","FR","2019-08-19","RLLC","","2907469","168217341","0 BRO-1","1 44495U 19054A   20357.11207642  .00000351  00000-0  37619-4 0  9994","2 44495  45.0205  15.2739 0010704 144.0563 257.6413 15.08672328 74119"
"2.0","GENERATED VIA SPACE-TRACK.ORG API","2020-12-22T14:46:09","18 SPCS","BRO-1","2019-054A","EARTH","TEME","UTC","SGP4","2020-12-22T09:16:21.891072","15.08671830","0.00107370","45.0200","13.8201","145.6891","307.2634","0","U","44495","999","7415","0.00002892300000","0.00000212","0.0000000000000","6918.394","95.448","547.687","532.831","PAYLOAD","SMALL","FR","2019-08-19","RLLC","","2907709","168222103","0 BRO-1","1 44495U 19054A   20357.38636448  .00000212  00000-0  28923-4 0  9997","2 44495  45.0200  13.8201 0010737 145.6891 307.2634 15.08671830 74157"
"2.0","GENERATED VIA SPACE-TRACK.ORG API","2020-12-22T19:30:16","18 SPCS","BRO-1","2019-054A","EARTH","TEME","UTC","SGP4","2020-12-22T10:56:35.883168","15.08671918","0.00107310","45.0203","13.4514","145.9945","325.3960","0","U","44495","999","7416","0.00002848100000","0.00000205","0.0000000000000","6918.394","95.448","547.683","532.835","PAYLOAD","SMALL","FR","2019-08-19","RLLC","","2907836","168244201","0 BRO-1","1 44495U 19054A   20357.45597087  .00000205  00000-0  28481-4 0  9991","2 44495  45.0203  13.4514 0010731 145.9945 325.3960 15.08671918 74161"
"2.0","GENERATED VIA SPACE-TRACK.ORG API","2020-12-23T06:46:10","18 SPCS","BRO-1","2019-054A","EARTH","TEME","UTC","SGP4","2020-12-23T02:32:25.324224","15.08672088","0.00106950","45.0203","10.0051","149.5726","255.0934","0","U","44495","999","7426","0.00002310800000","0.00000119","0.0000000000000","6918.393","95.448","547.657","532.859","PAYLOAD","SMALL","FR","2019-08-19","RLLC","","2908130","168253412","0 BRO-1","1 44495U 19054A   20358.10584866  .00000119  00000-0  23108-4 0  9990","2 44495  45.0203  10.0051 0010695 149.5726 255.0934 15.08672088 74266"
"2.0","GENERATED VIA SPACE-TRACK.ORG API","2020-12-23T14:36:10","18 SPCS","BRO-1","2019-054A","EARTH","TEME","UTC","SGP4","2020-12-23T09:07:11.872128","15.08672124","0.00106830","45.0205","8.5516","151.2304","303.9414","0","U","44495","999","7430","0.00002204900000","0.00000103","0.0000000000000","6918.393","95.448","547.649","532.867","PAYLOAD","SMALL","FR","2019-08-19","RLLC","","2908336","168257407","0 BRO-1","1 44495U 19054A   20358.37999852  .00000103  00000-0  22049-4 0  9990","2 44495  45.0205   8.5516 0010683 151.2304 303.9414 15.08672124 74307"
